{
  "type": "FeatureCollection",
  "features": [
    {
      "type": "Feature",
      "properties": {
        "ADM0_A3": "AAA",
        "ISO_A2_EH": "AA",
        "NAME": "Alpha",
        "NAME_LONG": "Alpha Republic"
      },
      "geometry": {
        "type": "Polygon",
        "coordinates": [
          [
            [0, 0],
            [1, 0],
            [1, 1],
            [0, 1],
            [0, 0]
          ]
        ]
      }
    },
    {
      "type": "Feature",
      "properties": {
        "ADM0_A3": "BBB",
        "ISO_A2_EH": "BB",
        "NAME": "Beta Isles"
      },
      "geometry": {
        "type": "MultiPolygon",
        "coordinates": [
          [
            [
              [10, 0],
              [11, 0],
              [11, 1],
              [10, 1],
              [10, 0]
            ]
          ],
          [
            [
              [12, 0],
              [13, 0],
              [13, 1],
              [12, 1],
              [12, 0]
            ]
          ]
        ]
      }
    },
    {
      "type": "Feature",
      "properties": {
        "ADM0_A3": "BAD",
        "NAME": ""
      },
      "geometry": {
        "type": "Polygon",
        "coordinates": [
          [
            [2, 0],
            [3, 0],
            [3, 1],
            [2, 1],
            [2, 0]
          ]
        ]
      }
    }
  ]
}
